{"fetched_at":"2026-03-29T16:36:15Z","count":15609,"tles":[{"name":"STARLINK-11602 [DTC]","line1":"1 63183U 25048A   26087.73903573  .00371071  00000+0  27647-2 0  9996","line2":"2 63183  43.0010 205.3883 0001111 268.2672  91.8068 15.70869627 61131","category":"Starlink"}]}