{
  "norad_id": 63183,
  "name": "STARLINK-11602 [DTC]",
  "history": [
    {
      "epoch": "2026-03-28T17:44:12.687072",
      "apogee_km": 357.15899567581437,
      "perigee_km": 355.66177110153876,
      "latitude_deg": 35.488137236615664,
      "longitude_deg": -150.75256991991773,
      "semi_major_axis_km": 6734.547383388676,
      "eccentricity": 0.00011116,
      "inclination_deg": 43.001,
      "raan_deg": 205.3883,
      "arg_perigee_deg": 268.2672,
      "mean_anomaly_deg": 91.8068,
      "mean_motion_rev_day": 15.70869627
    }
  ]
}